{
    "week": 295,
    "satellites": [
        {
            "Name": "BEIDOU-3 M8 (C28)",
            "Line1": "1 43108U 18003B   24335.49483433 -.00000067  00000+0  00000+0 0  9995",
            "Line2": "2 43108  54.8052 321.8750 0005163 267.7461  92.1961  1.86230967 46860",
            "SatelliteNumber": "43108",
            "Classification": "U",
            "LaunchYear": "18",
            "LaunchNumber": "003",
            "PieceOfLaunch": "B",
            "EpochYear": "24",
            "EpochDay": 335.49483433,
            "FirstDerivativeMeanMotion": -6.7e-07,
            "SecondDerivativeMeanMotion": "00000+0",
            "BSTAR": "00000+0",
            "SetNumber": "999",
            "Inclination": 54.8052,
            "RAAN": 321.875,
            "Eccentricity": 0.0005163,
            "ArgumentOfPerigee": 267.7461,
            "MeanAnomaly": 92.1961,
            "MeanMotion": 1.86230967,
            "RevolutionNumber": "4686"
        },
        {
            "Name": "BEIDOU-3 M4 (C22)",
            "Line1": "1 43207U 18018A   24334.86203955 -.00000035  00000+0  00000+0 0  9995",
            "Line2": "2 43207  56.1593  81.8348 0003614   9.8394 350.1490  1.86231245 46235",
            "SatelliteNumber": "43207",
            "Classification": "U",
            "LaunchYear": "18",
            "LaunchNumber": "018",
            "PieceOfLaunch": "A",
            "EpochYear": "24",
            "EpochDay": 334.86203955,
            "FirstDerivativeMeanMotion": -3.5e-07,
            "SecondDerivativeMeanMotion": "00000+0",
            "BSTAR": "00000+0",
            "SetNumber": "999",
            "Inclination": 56.1593,
            "RAAN": 81.8348,
            "Eccentricity": 0.0003614,
            "ArgumentOfPerigee": 9.8394,
            "MeanAnomaly": 350.149,
            "MeanMotion": 1.86231245,
            "RevolutionNumber": "4623"
        },
        {
            "Name": "BEIDOU-3 M3 (C21)",
            "Line1": "1 43208U 18018B   24334.92864546 -.00000034  00000+0  00000+0 0  9991",
            "Line2": "2 43208  56.1588  81.8369 0005888 309.9312  49.9986  1.86231382 46237",
            "SatelliteNumber": "43208",
            "Classification": "U",
            "LaunchYear": "18",
            "LaunchNumber": "018",
            "PieceOfLaunch": "B",
            "EpochYear": "24",
            "EpochDay": 334.92864546,
            "FirstDerivativeMeanMotion": -3.4e-07,
            "SecondDerivativeMeanMotion": "00000+0",
            "BSTAR": "00000+0",
            "SetNumber": "999",
            "Inclination": 56.1588,
            "RAAN": 81.8369,
            "Eccentricity": 0.0005888,
            "ArgumentOfPerigee": 309.9312,
            "MeanAnomaly": 49.9986,
            "MeanMotion": 1.86231382,
            "RevolutionNumber": "4623"
        },
        {
            "Name": "BEIDOU-3 M9 (C29)",
            "Line1": "1 43245U 18029A   24335.14841394 -.00000068  00000+0  00000+0 0  9992",
            "Line2": "2 43245  54.6909 319.5941 0002203 272.3600  87.6138  1.86232802 45398",
            "SatelliteNumber": "43245",
            "Classification": "U",
            "LaunchYear": "18",
            "LaunchNumber": "029",
            "PieceOfLaunch": "A",
            "EpochYear": "24",
            "EpochDay": 335.14841394,
            "FirstDerivativeMeanMotion": -6.8e-07,
            "SecondDerivativeMeanMotion": "00000+0",
            "BSTAR": "00000+0",
            "SetNumber": "999",
            "Inclination": 54.6909,
            "RAAN": 319.5941,
            "Eccentricity": 0.0002203,
            "ArgumentOfPerigee": 272.36,
            "MeanAnomaly": 87.6138,
            "MeanMotion": 1.86232802,
            "RevolutionNumber": "4539"
        },
        {
            "Name": "BEIDOU-3 M10 (C30)",
            "Line1": "1 43246U 18029B   24334.54091378 -.00000071  00000+0  00000+0 0  9999",
            "Line2": "2 43246  54.6885 319.6425 0003921 345.8903  14.0989  1.86232890 45362",
            "SatelliteNumber": "43246",
            "Classification": "U",
            "LaunchYear": "18",
            "LaunchNumber": "029",
            "PieceOfLaunch": "B",
            "EpochYear": "24",
            "EpochDay": 334.54091378,
            "FirstDerivativeMeanMotion": -7.1e-07,
            "SecondDerivativeMeanMotion": "00000+0",
            "BSTAR": "00000+0",
            "SetNumber": "999",
            "Inclination": 54.6885,
            "RAAN": 319.6425,
            "Eccentricity": 0.0003921,
            "ArgumentOfPerigee": 345.8903,
            "MeanAnomaly": 14.0989,
            "MeanMotion": 1.8623289,
            "RevolutionNumber": "4536"
        },
        {
            "Name": "BEIDOU-2 IGSO-7 (C16)",
            "Line1": "1 43539U 18057A   24335.46679370 -.00000019  00000+0  00000+0 0  9993",
            "Line2": "2 43539  55.1517 167.9381 0078090 232.0443 310.3112  1.00261250 23482",
            "SatelliteNumber": "43539",
            "Classification": "U",
            "LaunchYear": "18",
            "LaunchNumber": "057",
            "PieceOfLaunch": "A",
            "EpochYear": "24",
            "EpochDay": 335.4667937,
            "FirstDerivativeMeanMotion": -1.9e-07,
            "SecondDerivativeMeanMotion": "00000+0",
            "BSTAR": "00000+0",
            "SetNumber": "999",
            "Inclination": 55.1517,
            "RAAN": 167.9381,
            "Eccentricity": 0.007809,
            "ArgumentOfPerigee": 232.0443,
            "MeanAnomaly": 310.3112,
            "MeanMotion": 1.0026125,
            "RevolutionNumber": "2348"
        },
        {
            "Name": "BEIDOU-3 M5 (C23)",
            "Line1": "1 43581U 18062A   24334.22967432  .00000090  00000+0  00000+0 0  9996",
            "Line2": "2 43581  54.1133 201.5173 0002222 336.8401  23.2545  1.86228935 43116",
            "SatelliteNumber": "43581",
            "Classification": "U",
            "LaunchYear": "18",
            "LaunchNumber": "062",
            "PieceOfLaunch": "A",
            "EpochYear": "24",
            "EpochDay": 334.22967432,
            "FirstDerivativeMeanMotion": 9e-07,
            "SecondDerivativeMeanMotion": "00000+0",
            "BSTAR": "00000+0",
            "SetNumber": "999",
            "Inclination": 54.1133,
            "RAAN": 201.5173,
            "Eccentricity": 0.0002222,
            "ArgumentOfPerigee": 336.8401,
            "MeanAnomaly": 23.2545,
            "MeanMotion": 1.86228935,
            "RevolutionNumber": "4311"
        },
        {
            "Name": "BEIDOU-3 M6 (C24)",
            "Line1": "1 43582U 18062B   24335.16854654  .00000094  00000+0  00000+0 0  9996",
            "Line2": "2 43582  54.1129 201.4747 0007213  38.5000 321.6587  1.86229967 43133",
            "SatelliteNumber": "43582",
            "Classification": "U",
            "LaunchYear": "18",
            "LaunchNumber": "062",
            "PieceOfLaunch": "B",
            "EpochYear": "24",
            "EpochDay": 335.16854654,
            "FirstDerivativeMeanMotion": 9.4e-07,
            "SecondDerivativeMeanMotion": "00000+0",
            "BSTAR": "00000+0",
            "SetNumber": "999",
            "Inclination": 54.1129,
            "RAAN": 201.4747,
            "Eccentricity": 0.0007213,
            "ArgumentOfPerigee": 38.5,
            "MeanAnomaly": 321.6587,
            "MeanMotion": 1.86229967,
            "RevolutionNumber": "4313"
        },
        {
            "Name": "BEIDOU-3 M12 (C26)",
            "Line1": "1 43602U 18067A   24335.10245641  .00000095  00000+0  00000+0 0  9999",
            "Line2": "2 43602  54.2049 200.1732 0008577  34.0402 326.1218  1.86227790 42614",
            "SatelliteNumber": "43602",
            "Classification": "U",
            "LaunchYear": "18",
            "LaunchNumber": "067",
            "PieceOfLaunch": "A",
            "EpochYear": "24",
            "EpochDay": 335.10245641,
            "FirstDerivativeMeanMotion": 9.5e-07,
            "SecondDerivativeMeanMotion": "00000+0",
            "BSTAR": "00000+0",
            "SetNumber": "999",
            "Inclination": 54.2049,
            "RAAN": 200.1732,
            "Eccentricity": 0.0008577,
            "ArgumentOfPerigee": 34.0402,
            "MeanAnomaly": 326.1218,
            "MeanMotion": 1.8622779,
            "RevolutionNumber": "4261"
        },
        {
            "Name": "BEIDOU-3 M11 (C25)",
            "Line1": "1 43603U 18067B   24335.23595134  .00000096  00000+0  00000+0 0  9990",
            "Line2": "2 43603  54.2022 200.1334 0005199  29.5397 330.5969  1.86227301 42646",
            "SatelliteNumber": "43603",
            "Classification": "U",
            "LaunchYear": "18",
            "LaunchNumber": "067",
            "PieceOfLaunch": "B",
            "EpochYear": "24",
            "EpochDay": 335.23595134,
            "FirstDerivativeMeanMotion": 9.6e-07,
            "SecondDerivativeMeanMotion": "00000+0",
            "BSTAR": "00000+0",
            "SetNumber": "999",
            "Inclination": 54.2022,
            "RAAN": 200.1334,
            "Eccentricity": 0.0005199,
            "ArgumentOfPerigee": 29.5397,
            "MeanAnomaly": 330.5969,
            "MeanMotion": 1.86227301,
            "RevolutionNumber": "4264"
        }
    ]
}